[{"OBJECT_NAME":"ARIRANG-5 (KOMPSAT-5)","OBJECT_ID":"2013-042A","EPOCH":"2026-03-10T00:02:57.181344","MEAN_MOTION":15.04553599,"ECCENTRICITY":0.00039005,"INCLINATION":97.62,"RA_OF_ASC_NODE":257.0804,"ARG_OF_PERICENTER":111.6826,"MEAN_ANOMALY":248.4816,"EPHEMERIS_TYPE":0,"CLASSIFICATION_TYPE":"U","NORAD_CAT_ID":39227,"ELEMENT_SET_NO":999,"REV_AT_EPOCH":68894,"BSTAR":0.00023956705,"MEAN_MOTION_DOT":3.298e-5,"MEAN_MOTION_DDOT":0},{"OBJECT_NAME":"STARLINK-34958","OBJECT_ID":"2025-179C","EPOCH":"2026-03-09T16:22:17.904288","MEAN_MOTION":15.05622171,"ECCENTRICITY":0.00016486,"INCLINATION":97.6029,"RA_OF_ASC_NODE":112.9018,"ARG_OF_PERICENTER":109.5641,"MEAN_ANOMALY":250.5764,"EPHEMERIS_TYPE":0,"CLASSIFICATION_TYPE":"U","NORAD_CAT_ID":65237,"ELEMENT_SET_NO":999,"REV_AT_EPOCH":3196,"BSTAR":-0.0002252672,"MEAN_MOTION_DOT":-3.307e-5,"MEAN_MOTION_DDOT":0}]
